NORAD_CAT_ID,OBJECT_NAME,OBJECT_TYPE,EPOCH,MEAN_MOTION,ECCENTRICITY,INCLINATION,RA_OF_ASC_NODE,ARG_OF_PERICENTER,MEAN_ANOMALY,BSTAR,MEAN_MOTION_DOT,MEAN_MOTION_DDOT,TLE_LINE0,TLE_LINE1,TLE_LINE2,SEMIMAJOR_AXIS,PERIOD,APOGEE,PERIGEE,DECAYED
53857.0,STARLINK-4809,PAYLOAD,2023-04-30 15:41:28,15.08837837,4.11e-05,53.217,300.5569,89.2913,270.8126,5.0981e-05,5.24e-06,0.0,0 STARLINK-4809,1 53857U 22114AR  23120.65380758  .00000524  00000-0  50981-4 0  9996,2 53857  53.2170 300.5569 0000411  89.2913 270.8126 15.08837837 34827,6917.887,95.438,540.036,539.468,0.0
53857.0,STARLINK-4809,PAYLOAD,2023-04-30 22:03:01,15.08846658,5.69e-05,53.2163,299.3683,80.8443,279.2613,0.00015731,2.217e-05,0.0,0 STARLINK-4809,1 53857U 22114AR  23120.91876435  .00002217  00000-0  15731-3 0  9991,2 53857  53.2163 299.3683 0000569  80.8443 279.2613 15.08846658 34869,6917.86,95.437,540.119,539.331,0.0
53857.0,STARLINK-4809,PAYLOAD,2023-05-01 12:21:29,15.08838265,6.61e-05,53.2175,296.691,81.0675,279.0392,-1.8933e-05,-5.89e-06,0.0,0 STARLINK-4809,1 53857U 22114AR  23121.51492916 -.00000589  00000-0 -18933-4 0  9996,2 53857  53.2175 296.6910 0000661  81.0675 279.0392 15.08838265 35495,6917.886,95.438,540.208,539.293,0.0
53857.0,STARLINK-4809,PAYLOAD,2023-05-01 15:32:16,15.08837642,6.64e-05,53.2176,296.0967,97.0283,263.0784,-8.1333e-06,-4.17e-06,0.0,0 STARLINK-4809,1 53857U 22114AR  23121.64740919 -.00000417  00000-0 -81333-5 0  9994,2 53857  53.2176 296.0967 0000664  97.0283 263.0784 15.08837642 34975,6917.888,95.438,540.212,539.293,0.0
53857.0,STARLINK-4809,PAYLOAD,2023-05-01 18:43:02,15.08838418,6.53e-05,53.2176,295.5014,88.793,271.3137,-1.1653e-06,-3.06e-06,0.0,0 STARLINK-4809,1 53857U 22114AR  23121.77988884 -.00000306  00000-0 -11653-5 0  9998,2 53857  53.2176 295.5014 0000653  88.7930 271.3137 15.08838418 35535,6917.885,95.438,540.202,539.298,0.0
53857.0,STARLINK-4809,PAYLOAD,2023-05-02 16:58:26,15.08836988,6.73e-05,53.2176,291.3429,91.2815,268.8254,0.00024218,3.568e-05,0.0,0 STARLINK-4809,1 53857U 22114AR  23122.70725069  .00003568  00000-0  24218-3 0  9996,2 53857  53.2176 291.3429 0000673  91.2815 268.8254 15.08836988 35139,6917.89,95.438,540.22,539.289,0.0
53857.0,STARLINK-4809,PAYLOAD,2023-05-02 20:09:12,15.08848428,5.53e-05,53.2171,290.744,88.7431,271.3624,0.00011792,1.59e-05,0.0,0 STARLINK-4809,1 53857U 22114AR  23122.83972423  .00001590  00000-0  11792-3 0  9994,2 53857  53.2171 290.7440 0000553  88.7431 271.3624 15.08848428 35695,6917.855,95.437,540.102,539.337,0.0
53857.0,STARLINK-4809,PAYLOAD,2023-05-02 21:44:35,15.08849678,7.74e-05,53.2171,290.4451,57.8045,302.3022,0.00018303,2.627e-05,0.0,0 STARLINK-4809,1 53857U 22114AR  23122.90596425  .00002627  00000-0  18303-3 0  9993,2 53857  53.2171 290.4451 0000774  57.8045 302.3022 15.08849678 35164,6917.851,95.437,540.251,539.18,0.0
53857.0,STARLINK-4809,PAYLOAD,2023-05-03 19:59:59,15.0884066,6.6e-05,53.2173,286.2796,81.0146,279.092,0.00011578,1.556e-05,0.0,0 STARLINK-4809,1 53857U 22114AR  23123.83333056  .00001556  00000-0  11578-3 0  9992,2 53857  53.2173 286.2796 0000660  81.0146 279.0920 15.08840660 35301,6917.878,95.438,540.2,539.287,0.0
53857.0,STARLINK-4809,PAYLOAD,2023-05-04 10:18:28,15.08837458,5.99e-05,53.2156,283.604,70.5319,289.5738,-1.8757e-06,-3.17e-06,0.0,0 STARLINK-4809,1 53857U 22114AR  23124.42949285 -.00000317  00000-0 -18757-5 0  9999,2 53857  53.2156 283.6040 0000599  70.5319 289.5738 15.08837458 35934,6917.888,95.438,540.168,539.339,0.0
53857.0,STARLINK-4809,PAYLOAD,2023-05-04 19:50:46,15.08848978,6.45e-05,53.2157,281.8227,57.861,302.2445,0.00025956,3.847e-05,0.0,0 STARLINK-4809,1 53857U 22114AR  23124.82692919  .00003847  00000-0  25956-3 0  9998,2 53857  53.2157 281.8227 0000645  57.8610 302.2445 15.08848978 35999,6917.853,95.437,540.164,539.272,0.0
53857.0,STARLINK-4809,PAYLOAD,2023-05-05 03:47:42,15.08839633,7.69e-05,53.2153,280.3354,59.9935,300.1133,0.00010695,1.415e-05,0.0,0 STARLINK-4809,1 53857U 22114AR  23125.15813223  .00001415  00000-0  10695-3 0  9991,2 53857  53.2153 280.3354 0000769  59.9935 300.1133 15.08839633 35506,6917.882,95.438,540.278,539.215,0.0
53857.0,STARLINK-4809,PAYLOAD,2023-05-05 18:06:10,15.08843595,6.2e-05,53.2155,277.6589,63.5879,296.5177,0.00018179,2.607e-05,0.0,0 STARLINK-4809,1 53857U 22114AR  23125.75429306  .00002607  00000-0  18179-3 0  9991,2 53857  53.2155 277.6589 0000620  63.5879 296.5177 15.08843595 36139,6917.869,95.437,540.163,539.305,0.0
53857.0,STARLINK-4809,PAYLOAD,2023-05-06 13:10:48,15.08846503,7.79e-05,53.2156,274.0913,60.5786,299.5284,0.00019822,2.869e-05,0.0,0 STARLINK-4809,1 53857U 22114AR  23126.54917371  .00002869  00000-0  19822-3 0  9999,2 53857  53.2156 274.0913 0000779  60.5786 299.5284 15.08846503 36258,6917.861,95.437,540.264,539.187,0.0
53857.0,STARLINK-4809,PAYLOAD,2023-05-06 19:32:20,15.08856162,7.77e-05,53.2151,272.9001,70.9139,289.1937,0.00039046,5.935e-05,0.0,0 STARLINK-4809,1 53857U 22114AR  23126.81412905  .00005935  00000-0  39046-3 0  9999,2 53857  53.2151 272.9001 0000777  70.9139 289.1937 15.08856162 35759,6917.831,95.437,540.234,539.158,0.0
53857.0,STARLINK-4809,PAYLOAD,2023-05-07 13:01:35,15.0883726,6.63e-05,53.2154,269.6301,73.8119,286.2946,7.7231e-05,9.42e-06,0.0,0 STARLINK-4809,1 53857U 22114AR  23127.54277763  .00000942  00000-0  77231-4 0  9993,2 53857  53.2154 269.6301 0000663  73.8119 286.2946 15.08837260 35860,6917.889,95.438,540.212,539.295,0.0
53857.0,STARLINK-4809,PAYLOAD,2023-05-07 16:12:22,15.08838685,6.27e-05,53.2153,269.0354,71.6005,288.5055,0.00010363,1.362e-05,0.0,0 STARLINK-4809,1 53857U 22114AR  23127.67525727  .00001362  00000-0  10363-3 0  9992,2 53857  53.2153 269.0354 0000627  71.6005 288.5055 15.08838685 36422,6917.884,95.438,540.183,539.316,0.0
53857.0,STARLINK-4809,PAYLOAD,2023-05-08 16:03:09,15.08848611,5e-05,53.2153,264.5763,75.1739,284.9309,0.00054755,8.439e-05,0.0,0 STARLINK-4809,1 53857U 22114AR  23128.66885665  .00008439  00000-0  54755-3 0  9997,2 53857  53.2153 264.5763 0000500  75.1739 284.9309 15.08848611 36038,6917.854,95.437,540.065,539.373,0.0
53857.0,STARLINK-4809,PAYLOAD,2023-05-09 14:18:33,15.08845097,6.29e-05,53.2167,260.4156,91.4603,268.6461,0.00020382,2.958e-05,0.0,0 STARLINK-4809,1 53857U 22114AR  23129.59621661  .00002958  00000-0  20382-3 0  9993,2 53857  53.2167 260.4156 0000629  91.4603 268.6461 15.08845097 36715,6917.865,95.437,540.165,539.295,0.0
53857.0,STARLINK-4809,PAYLOAD,2023-05-10 12:33:57,15.08839338,5.71e-05,53.2153,256.2518,123.2893,236.8154,-6.0587e-05,-1.252e-05,0.0,0 STARLINK-4809,1 53857U 22114AR  23130.52357736 -.00001252  00000-0 -60587-4 0  9997,2 53857  53.2153 256.2518 0000571 123.2893 236.8154 15.08839338 36858,6917.882,95.438,540.142,539.352,0.0
53857.0,STARLINK-4809,PAYLOAD,2023-05-10 15:44:42,15.08847776,5.23e-05,53.2158,255.6559,104.074,256.0311,6.4376e-05,7.37e-06,0.0,0 STARLINK-4809,1 53857U 22114AR  23130.65605322  .00000737  00000-0  64376-4 0  9993,2 53857  53.2158 255.6559 0000523 104.0740 256.0311 15.08847776 36333,6917.857,95.437,540.083,539.36,0.0
53857.0,STARLINK-4809,PAYLOAD,2023-05-11 01:17:01,15.08846136,4.91e-05,53.2156,253.8716,95.1021,265.0027,0.00018248,2.618e-05,0.0,0 STARLINK-4809,1 53857U 22114AR  23131.05349394  .00002618  00000-0  18248-3 0  9998,2 53857  53.2156 253.8716 0000491  95.1021 265.0027 15.08846136 36931,6917.862,95.437,540.066,539.387,0.0
53857.0,STARLINK-4809,PAYLOAD,2023-05-11 15:35:31,15.08825401,6.74e-05,53.2165,251.193,86.4389,273.668,-0.00019615,-3.407e-05,0.0,0 STARLINK-4809,1 53857U 22114AR  23131.64966939 -.00003407  00000-0 -19615-3 0  9991,2 53857  53.2165 251.1930 0000674  86.4389 273.6680 15.08825401 36485,6917.925,95.438,540.256,539.324,0.0
53857.0,STARLINK-4809,PAYLOAD,2023-05-12 01:07:50,15.08834462,5.14e-05,53.2166,249.4127,114.245,245.8596,4.0959e-05,3.64e-06,0.0,0 STARLINK-4809,1 53857U 22114AR  23132.04710910  .00000364  00000-0  40959-4 0  9995,2 53857  53.2166 249.4127 0000514 114.2450 245.8596 15.08834462 36547,6917.897,95.438,540.118,539.407,0.0
53857.0,STARLINK-4809,PAYLOAD,2023-05-13 00:58:35,15.08860958,5.4e-05,53.2167,244.9514,134.4319,225.6718,0.00015635,2.203e-05,0.0,0 STARLINK-4809,1 53857U 22114AR  23133.04068733  .00002203  00000-0  15635-3 0  9991,2 53857  53.2167 244.9514 0000540 134.4319 225.6718 15.08860958 36692,6917.816,95.436,540.055,539.308,0.0
53857.0,STARLINK-4809,PAYLOAD,2023-05-13 12:06:18,15.08837998,4.56e-05,53.2153,242.8726,75.917,284.1873,0.00016635,2.361e-05,0.0,0 STARLINK-4809,1 53857U 22114AR  23133.50438396  .00002361  00000-0  16635-3 0  9994,2 53857  53.2153 242.8726 0000456  75.9170 284.1873 15.08837998 37308,6917.887,95.438,540.067,539.436,0.0
53857.0,STARLINK-4809,PAYLOAD,2023-05-13 13:41:41,15.08840568,8.51e-05,53.2169,242.5683,138.6748,221.4308,0.00019332,2.79e-05,0.0,0 STARLINK-4809,1 53857U 22114AR  23133.57061720  .00002790  00000-0  19332-3 0  9997,2 53857  53.2169 242.5683 0000851 138.6748 221.4308 15.08840568 36775,6917.879,95.438,540.332,539.155,0.0
53857.0,STARLINK-4809,PAYLOAD,2023-05-14 13:32:28,15.0884675,9.8e-05,53.2187,238.1086,126.6098,233.4984,-7.6596e-06,-4.1e-06,0.0,0 STARLINK-4809,1 53857U 22114AR  23134.56421763 -.00000410  00000-0 -76596-5 0  9990,2 53857  53.2187 238.1086 0000980 126.6098 233.4984 15.08846750 37460,6917.86,95.437,540.403,539.047,0.0
53857.0,STARLINK-4809,PAYLOAD,2023-05-14 15:07:51,15.08846428,0.0001001,53.2183,237.8107,129.9177,230.1903,-8.2442e-06,-4.19e-06,0.0,0 STARLINK-4809,1 53857U 22114AR  23134.63045726 -.00000419  00000-0 -82442-5 0  9995,2 53857  53.2183 237.8107 0001001 129.9177 230.1903 15.08846428 37473,6917.861,95.437,540.418,539.033,0.0
53857.0,STARLINK-4809,PAYLOAD,2023-05-15 13:23:15,15.08836597,6.88e-05,53.2175,233.6505,112.2086,247.898,1.8272e-05,3e-08,0.0,0 STARLINK-4809,1 53857U 22114AR  23135.55782220  .00000003  00000-0  18272-4 0  9990,2 53857  53.2175 233.6505 0000688 112.2086 247.8980 15.08836597 37076,6917.891,95.438,540.232,539.28,0.0
